[Satellite]
VERSION=1.1
NAME=YAOGAN 29
NICKNAME=YAOGAN 29
TLE1=1 41038U 15069A   17186.24129510 -.00000005  00000-0  61188-5 0  9999
TLE2=2 41038  97.8996 168.2049 0001562 100.2586 259.8809 14.80394561 86750
